{
  "type": "FeatureCollection",
  "name": "PHIVOLCS_Active_Faults_Philippines",
  "crs": { "type": "name", "properties": { "name": "urn:ogc:def:crs:OGC:1.3:CRS84" } },
  "features": [
    {
      "type": "Feature",
      "properties": {
        "name": "West Valley Fault System (PHIVOLCS VFS Main Trace)",
        "fault_type": "Active Strike-Slip Fault",
        "region": "NCR / Central Luzon / CALABARZON",
        "phivolcs_code": "VFS-WEST"
      },
      "geometry": {
        "type": "LineString",
        "coordinates": [
          [121.0820, 14.9800],
          [121.0720, 14.9150],
          [121.0650, 14.8650],
          [121.0580, 14.8250],
          [121.0680, 14.7850],
          [121.0850, 14.7450],
          [121.0950, 14.7100],
          [121.0910, 14.6850],
          [121.0860, 14.6620],
          [121.0820, 14.6420],
          [121.0780, 14.6220],
          [121.0740, 14.6020],
          [121.0700, 14.5820],
          [121.0650, 14.5680],
          [121.0600, 14.5520],
          [121.0550, 14.5340],
          [121.0500, 14.5120],
          [121.0450, 14.4820],
          [121.0410, 14.4520],
          [121.0370, 14.4150],
          [121.0330, 14.3780],
          [121.0290, 14.3480],
          [121.0230, 14.3120],
          [121.0150, 14.2650],
          [121.0050, 14.2150],
          [120.9920, 14.1650]
        ]
      }
    },
    {
      "type": "Feature",
      "properties": {
        "name": "East Valley Fault System (PHIVOLCS EFS Trace)",
        "fault_type": "Active Normal-Slip Fault",
        "region": "Rizal",
        "phivolcs_code": "VFS-EAST"
      },
      "geometry": {
        "type": "LineString",
        "coordinates": [
          [121.1850, 14.7550],
          [121.1760, 14.7320],
          [121.1680, 14.7080],
          [121.1590, 14.6820],
          [121.1510, 14.6560],
          [121.1430, 14.6300],
          [121.1350, 14.6040],
          [121.1270, 14.5780],
          [121.1190, 14.5500]
        ]
      }
    },
    {
      "type": "Feature",
      "properties": {
        "name": "Philippine Fault Zone - Digdig Segment (1990 Earthquakes)",
        "fault_type": "Active Left-Lateral Strike-Slip",
        "region": "Central Luzon",
        "phivolcs_code": "PFZ-DIGDIG"
      },
      "geometry": {
        "type": "LineString",
        "coordinates": [
          [120.6500, 16.3500],
          [120.8500, 16.0500],
          [121.0200, 15.7500],
          [121.1800, 15.4500],
          [121.3500, 15.1500]
        ]
      }
    },
    {
      "type": "Feature",
      "properties": {
        "name": "Philippine Fault Zone - Quezon Guinyangan Segment",
        "fault_type": "Active Strike-Slip Fault",
        "region": "Southern Luzon",
        "phivolcs_code": "PFZ-QUEZON"
      },
      "geometry": {
        "type": "LineString",
        "coordinates": [
          [121.7500, 14.7500],
          [122.1500, 14.2500],
          [122.5500, 13.7500],
          [122.9500, 13.2500]
        ]
      }
    },
    {
      "type": "Feature",
      "properties": {
        "name": "Central Cebu Fault System",
        "fault_type": "Active Reverse Fault",
        "region": "Central Visayas",
        "phivolcs_code": "CEBU-CENTRAL"
      },
      "geometry": {
        "type": "LineString",
        "coordinates": [
          [123.7500, 10.4500],
          [123.8500, 10.3500],
          [123.9500, 10.2500]
        ]
      }
    },
    {
      "type": "Feature",
      "properties": {
        "name": "Cotabato Fault System (Mindanao)",
        "fault_type": "Active Strike-Slip Fault Zone",
        "region": "SOCCSKSARGEN / Davao",
        "phivolcs_code": "COTABATO-MAIN"
      },
      "geometry": {
        "type": "LineString",
        "coordinates": [
          [124.7500, 6.9500],
          [125.1500, 6.7500],
          [125.4500, 6.5500]
        ]
      }
    }
  ]
}
